[{"OBJECT_NAME":"STARLINK-3202","OBJECT_ID":"2021-115U","EPOCH":"2026-03-09T11:57:49.350240","MEAN_MOTION":15.08830345,"ECCENTRICITY":0.00014638,"INCLINATION":53.2174,"RA_OF_ASC_NODE":149.9773,"ARG_OF_PERICENTER":89.0826,"MEAN_ANOMALY":271.0333,"EPHEMERIS_TYPE":0,"CLASSIFICATION_TYPE":"U","NORAD_CAT_ID":49742,"ELEMENT_SET_NO":999,"REV_AT_EPOCH":23550,"BSTAR":3.4768454e-5,"MEAN_MOTION_DOT":2.65e-6,"MEAN_MOTION_DDOT":0},{"OBJECT_NAME":"IRIDIUM 33 DEB","OBJECT_ID":"1997-051QE","EPOCH":"2026-03-07T09:35:18.798432","MEAN_MOTION":15.07266806,"ECCENTRICITY":0.0013423,"INCLINATION":86.3519,"RA_OF_ASC_NODE":312.8742,"ARG_OF_PERICENTER":171.2899,"MEAN_ANOMALY":188.8573,"EPHEMERIS_TYPE":0,"CLASSIFICATION_TYPE":"U","NORAD_CAT_ID":35484,"ELEMENT_SET_NO":999,"REV_AT_EPOCH":63287,"BSTAR":0.0040001,"MEAN_MOTION_DOT":0.00060878,"MEAN_MOTION_DDOT":0}]
